{
  "type": "FeatureCollection",
  "features": [
    {
      "type": "Feature",
      "properties": {
        "norad_id": 28051,
        "name": "IRS-P6 (RESOURCESAT-1)",
        "group": "resource",
        "lat": -17.8763425440637,
        "lon": 21.872822495608357,
        "alt_km": 809.2409418300067,
        "timestamp": "2025-12-04T09:47:37.179132+00:00",
        "meta_object_name": "IRS-P6 (RESOURCESAT-1)",
        "meta_object_id": "2003-046A",
        "meta_epoch": "2025-12-04T00:22:13.159776",
        "meta_mean_motion": 14.36068597,
        "meta_eccentricity": 0.00636873,
        "meta_inclination": 98.219,
        "meta_ra_of_asc_node": 18.8264,
        "meta_arg_of_pericenter": 206.9627,
        "meta_mean_anomaly": 265.8717,
        "meta_ephemeris_type": 0,
        "meta_classification_type": "U",
        "meta_norad_cat_id": 28051,
        "meta_element_set_no": 999,
        "meta_rev_at_epoch": 15251,
        "meta_bstar": 0.00016711043,
        "meta_mean_motion_dot": 4.56e-06,
        "meta_mean_motion_ddot": 0,
        "tle_line1": "1 28051U 03046A   25338.01543009  .00000456  00000+0  16711-3 0  9995",
        "tle_line2": "2 28051  98.2190  18.8264 0063687 206.9627 265.8717 14.36068597152517"
      },
      "geometry": {
        "type": "Point",
        "coordinates": [
          21.872822495608357,
          -17.8763425440637
        ]
      }
    },
    {
      "type": "Feature",
      "properties": {
        "norad_id": 28220,
        "name": "SHIYAN-1 (SY-1)",
        "group": "resource",
        "lat": -17.407033875012377,
        "lon": 41.95100913891323,
        "alt_km": 483.2640773352623,
        "timestamp": "2025-12-04T09:47:37.179144+00:00",
        "meta_object_name": "SHIYAN-1 (SY-1)",
        "meta_object_id": "2004-012A",
        "meta_epoch": "2025-12-03T18:09:04.722624",
        "meta_mean_motion": 15.27770603,
        "meta_eccentricity": 0.00062807,
        "meta_inclination": 97.8956,
        "meta_ra_of_asc_node": 38.7673,
        "meta_arg_of_pericenter": 358.887,
        "meta_mean_anomaly": 1.2352,
        "meta_ephemeris_type": 0,
        "meta_classification_type": "U",
        "meta_norad_cat_id": 28220,
        "meta_element_set_no": 999,
        "meta_rev_at_epoch": 18119,
        "meta_bstar": 0.0006591732,
        "meta_mean_motion_dot": 0.00017834,
        "meta_mean_motion_ddot": 0,
        "tle_line1": "1 28220U 04012A   25337.75630466  .00017834  00000+0  65917-3 0  9991",
        "tle_line2": "2 28220  97.8956  38.7673 0006280 358.8870   1.2352 15.27770603181190"
      },
      "geometry": {
        "type": "Point",
        "coordinates": [
          41.95100913891323,
          -17.407033875012377
        ]
      }
    },
    {
      "type": "Feature",
      "properties": {
        "norad_id": 28376,
        "name": "AURA",
        "group": "resource",
        "lat": -43.22607767716776,
        "lon": 100.69362472798778,
        "alt_km": 697.3925381287545,
        "timestamp": "2025-12-04T09:47:37.179155+00:00",
        "meta_object_name": "AURA",
        "meta_object_id": "2004-026A",
        "meta_epoch": "2025-12-03T22:54:36.598464",
        "meta_mean_motion": 14.60914147,
        "meta_eccentricity": 0.00010798,
        "meta_inclination": 98.3171,
        "meta_ra_of_asc_node": 288.1412,
        "meta_arg_of_pericenter": 91.583,
        "meta_mean_anomaly": 268.5494,
        "meta_ephemeris_type": 0,
        "meta_classification_type": "U",
        "meta_norad_cat_id": 28376,
        "meta_element_set_no": 999,
        "meta_rev_at_epoch": 13770,
        "meta_bstar": 0.00042854449,
        "meta_mean_motion_dot": 2.05e-05,
        "meta_mean_motion_ddot": 0,
        "tle_line1": "1 28376U 04026A   25337.95459026  .00002050  00000+0  42854-3 0  9990",
        "tle_line2": "2 28376  98.3171 288.1412 0001079  91.5830 268.5494 14.60914147137709"
      },
      "geometry": {
        "type": "Point",
        "coordinates": [
          100.69362472798778,
          -43.22607767716776
        ]
      }
    },
    {
      "type": "Feature",
      "properties": {
        "norad_id": 28649,
        "name": "IRS-P5 (CARTOSAT-1)",
        "group": "resource",
        "lat": -80.91486467334333,
        "lon": 61.230065465137635,
        "alt_km": 605.0338663821403,
        "timestamp": "2025-12-04T09:47:37.179166+00:00",
        "meta_object_name": "IRS-P5 (CARTOSAT-1)",
        "meta_object_id": "2005-017A",
        "meta_epoch": "2025-12-03T19:40:19.815456",
        "meta_mean_motion": 14.90354061,
        "meta_eccentricity": 0.00017406,
        "meta_inclination": 97.55,
        "meta_ra_of_asc_node": 4.6288,
        "meta_arg_of_pericenter": 51.5682,
        "meta_mean_anomaly": 308.5693,
        "meta_ephemeris_type": 0,
        "meta_classification_type": "U",
        "meta_norad_cat_id": 28649,
        "meta_element_set_no": 999,
        "meta_rev_at_epoch": 11471,
        "meta_bstar": 0.00032668963,
        "meta_mean_motion_dot": 3.126e-05,
        "meta_mean_motion_ddot": 0,
        "tle_line1": "1 28649U 05017A   25337.81967379  .00003126  00000+0  32669-3 0  9992",
        "tle_line2": "2 28649  97.5500   4.6288 0001740  51.5682 308.5693 14.90354061114715"
      },
      "geometry": {
        "type": "Point",
        "coordinates": [
          61.230065465137635,
          -80.91486467334333
        ]
      }
    },
    {
      "type": "Feature",
      "properties": {
        "norad_id": 28893,
        "name": "SINAH 1",
        "group": "resource",
        "lat": -20.349467119000003,
        "lon": 110.03175261487675,
        "alt_km": 696.1490103417973,
        "timestamp": "2025-12-04T09:47:37.179177+00:00",
        "meta_object_name": "SINAH 1",
        "meta_object_id": "2005-043D",
        "meta_epoch": "2025-12-03T22:24:18.099648",
        "meta_mean_motion": 14.63947014,
        "meta_eccentricity": 0.00148573,
        "meta_inclination": 98.26,
        "meta_ra_of_asc_node": 106.4676,
        "meta_arg_of_pericenter": 163.4237,
        "meta_mean_anomaly": 196.7454,
        "meta_ephemeris_type": 0,
        "meta_classification_type": "U",
        "meta_norad_cat_id": 28893,
        "meta_element_set_no": 999,
        "meta_rev_at_epoch": 7195,
        "meta_bstar": 0.00019575721,
        "meta_mean_motion_dot": 9.77e-06,
        "meta_mean_motion_ddot": 0,
        "tle_line1": "1 28893U 05043D   25337.93354282  .00000977  00000+0  19576-3 0  9991",
        "tle_line2": "2 28893  98.2600 106.4676 0014857 163.4237 196.7454 14.63947014 71955"
      },
      "geometry": {
        "type": "Point",
        "coordinates": [
          110.03175261487675,
          -20.349467119000003
        ]
      }
    },
    {
      "type": "Feature",
      "properties": {
        "norad_id": 29079,
        "name": "EROS B",
        "group": "resource",
        "lat": 25.683307686593515,
        "lon": -81.83658322515971,
        "alt_km": 372.2341425957011,
        "timestamp": "2025-12-04T09:47:37.179188+00:00",
        "meta_object_name": "EROS B",
        "meta_object_id": "2006-014A",
        "meta_epoch": "2025-12-03T22:23:42.788832",
        "meta_mean_motion": 15.64841209,
        "meta_eccentricity": 0.0002134,
        "meta_inclination": 97.349,
        "meta_ra_of_asc_node": 94.1097,
        "meta_arg_of_pericenter": 237.1337,
        "meta_mean_anomaly": 122.9717,
        "meta_ephemeris_type": 0,
        "meta_classification_type": "U",
        "meta_norad_cat_id": 29079,
        "meta_element_set_no": 999,
        "meta_rev_at_epoch": 8942,
        "meta_bstar": 0.0021031841,
        "meta_mean_motion_dot": 0.00209725,
        "meta_mean_motion_ddot": 0,
        "tle_line1": "1 29079U 06014A   25337.93313413  .00209725  00000+0  21032-2 0  9999",
        "tle_line2": "2 29079  97.3490  94.1097 0002134 237.1337 122.9717 15.64841209 89429"
      },
      "geometry": {
        "type": "Point",
        "coordinates": [
          -81.83658322515971,
          25.683307686593515
        ]
      }
    },
    {
      "type": "Feature",
      "properties": {
        "norad_id": 29228,
        "name": "RESURS-DK 1",
        "group": "resource",
        "lat": -58.37448581118772,
        "lon": -20.219471435470922,
        "alt_km": 531.2343388661839,
        "timestamp": "2025-12-04T09:47:37.179199+00:00",
        "meta_object_name": "RESURS-DK 1",
        "meta_object_id": "2006-021A",
        "meta_epoch": "2025-12-03T20:00:42.744384",
        "meta_mean_motion": 15.12079711,
        "meta_eccentricity": 0.00078238,
        "meta_inclination": 69.9329,
        "meta_ra_of_asc_node": 124.8507,
        "meta_arg_of_pericenter": 265.1506,
        "meta_mean_anomaly": 94.8767,
        "meta_ephemeris_type": 0,
        "meta_classification_type": "U",
        "meta_norad_cat_id": 29228,
        "meta_element_set_no": 999,
        "meta_rev_at_epoch": 7303,
        "meta_bstar": 0.00033225758,
        "meta_mean_motion_dot": 5.63e-05,
        "meta_mean_motion_ddot": 0,
        "tle_line1": "1 29228U 06021A   25337.83382806  .00005630  00000+0  33226-3 0  9992",
        "tle_line2": "2 29228  69.9329 124.8507 0007823 265.1506  94.8767 15.12079711 73033"
      },
      "geometry": {
        "type": "Point",
        "coordinates": [
          -20.219471435470922,
          -58.37448581118772
        ]
      }
    }
  ]
}